GSAT0221 (GALILEO 25)   
1 43564U 18060A   22247.07053624 -.00000072  00000+0  00000+0 0  9999
2 43564  57.2022  19.0607 0002386 246.2368 113.7433  1.70475882 25613
GSAT0222 (GALILEO 26)   
1 43565U 18060B   22247.29040651 -.00000073  00000+0  00000+0 0  9991
2 43565  57.2046  19.0554 0001739 255.4038 104.5817  1.70475893 25658
GSAT0219 (GALILEO 23)   
1 43566U 18060C   22246.33778424 -.00000070  00000+0  00000+0 0  9999
2 43566  57.2044  19.0830 0001377 249.6834 110.3079  1.70475910 25612
GSAT0220 (GALILEO 24)   
1 43567U 18060D   22247.14453217 -.00000072  00000+0  00000+0 0  9992
2 43567  57.2046  19.0619 0001720 241.9742 118.0134  1.70475551 25613
BEIDOU-3 M13            
1 43622U 18072A   22246.86520561  .00000000  00000+0  00000+0 0  9992
2 43622  55.5225 108.7195 0005280 294.8772  53.9243  1.86231907 26908
BEIDOU-3 M14            
1 43623U 18072B   22246.58012366  .00000001  00000+0  00000+0 0  9992
2 43623  55.5252 108.7224 0004079 331.5231 276.3855  1.86231913 26903
GPS BIII-1              
1 43873U 18109A   22247.18461667 -.00000011  00000+0  00000+0 0  9991
2 43873  55.1010 146.7879 0020107 190.0705 341.3934  2.00553578 27352
METEOR-M2 2             
1 44387U 19038A   22247.35575909 -.00000013  00000+0  13666-4 0  9997
2 44387  98.7296 207.5279 0002304  61.0360 299.1055 14.23718206164631
GPS BIII-2              
1 44506U 19056A   22246.84113604 -.00000060  00000+0  00000+0 0  9998
2 44506  55.7144  25.9349 0027756 179.5099   3.8085  2.00557836 22347
BEIDOU-3 M23            
1 44542U 19061A   22247.12766512  .00000080  00000+0  00000+0 0  9999
2 44542  54.5668 229.4394 0008810 328.0236  31.9173  1.86231385 20057
BEIDOU-3 M24            
1 44543U 19061B   22247.36854865  .00000078  00000+0  00000+0 0  9992
2 44543  54.5636 229.4007 0006459 308.9345 123.9202  1.86231834 20053
BEIDOU-3 M21            
1 44793U 19078A   22247.59298336 -.00000092  00000+0  10000-3 0  9999
2 44793  54.9432 347.8946 0005232  20.4328  35.9499  1.86232421 18926
BEIDOU-3 M22            
1 44794U 19078B   22246.55352530 -.00000088  00000+0  00000+0 0  9992
2 44794  54.9184 347.9205 0003084  18.2230 333.0514  1.86232886 18891
ELEKTRO-L 3             
1 44903U 19095A   22247.51647917 -.00000104  00000+0  00000+0 0  9995
2 44903   0.0529 317.4929 0001676 193.3309  94.7801  1.00271545  9857
GPS BIII-3              
1 45854U 20041A   22246.43974763  .00000001  00000+0  00000+0 0  9991
2 45854  55.5821  83.2177 0025787 177.0752  12.9909  2.00557475 16305
GPS BIII-4              
1 46826U 20078A   22247.39178927  .00000061  00000+0  00000+0 0  9991
2 46826  54.5188 266.8911 0022931 191.5457 303.0633  2.00564898 13791
GSAT0223 (GALILEO 27)   
1 49809U 21116A   22246.70536505 -.00000071  00000+0  00000+0 0  9995
2 49809  57.1969  18.9720 0003342 163.1693  17.3436  1.70475805  4619
GSAT0224 (GALILEO 28)   
1 49810U 21116B   22246.80188189 -.00000071  00000+0  00000+0 0  9999
2 49810  57.1978  18.9674 0002936 153.9706 198.2530  1.70475756  4630
